TEVEL2-1                
1 63217U 25052H   26068.64782323  .00020683  00000+0  70600-3 0  9994
2 63217  97.3991 324.7682 0004767 104.8919 255.2849 15.30341923 54855
STARLINK-35846          
1 66367U 25254V   26068.70961338  .00041693  00000+0  14115-2 0  9991
2 66367  53.1604 232.0046 0001030 136.8276 223.2806 15.30210278 18981
